$$SOE
2459580.500000000, A.D. 2022-Jan-01 00:00:00.0000, -1.096914213807033E+08, -3.516938111634930E+08, -1.852304258043024E+07,
2459587.500000000, A.D. 2022-Jan-08 00:00:00.0000, -9.923696526108666E+07, -3.556907492172827E+08, -1.933591785494067E+07,
2459594.500000000, A.D. 2022-Jan-15 00:00:00.0000, -8.868723058397380E+07, -3.593462032988187E+08, -2.013022934760316E+07,
2459601.500000000, A.D. 2022-Jan-22 00:00:00.0000, -7.805295553328879E+07, -3.626591559261461E+08, -2.090535435520941E+07,
2459608.500000000, A.D. 2022-Jan-29 00:00:00.0000, -6.734479529529531E+07, -3.656288871410133E+08, -2.166069492715383E+07,
2459615.500000000, A.D. 2022-Feb-05 00:00:00.0000, -5.657331907834264E+07, -3.682549666723621E+08, -2.239567740009433E+07,
2459622.500000000, A.D. 2022-Feb-12 00:00:00.0000, -4.574900545060740E+07, -3.705372473667492E+08, -2.310975220605762E+07,
2459629.500000000, A.D. 2022-Feb-19 00:00:00.0000, -3.488223728956031E+07, -3.724758575337877E+08, -2.380239364173204E+07,
2459636.500000000, A.D. 2022-Feb-26 00:00:00.0000, -2.398329762428888E+07, -3.740711929428679E+08, -2.447309954033448E+07,
2459643.500000000, A.D. 2022-Mar-05 00:00:00.0000, -1.306236618170642E+07, -3.753239090984531E+08, -2.512139091351986E+07,
2459650.500000000, A.D. 2022-Mar-12 00:00:00.0000, -2.129516385794132E+06, -3.762349138676490E+08, -2.574681159136710E+07,
2459657.500000000, A.D. 2022-Mar-19 00:00:00.0000, 8.805287290051874E+06, -3.768053604379483E+08, -2.634892786693235E+07,
2459664.500000000, A.D. 2022-Mar-26 00:00:00.0000, 1.973219166879971E+07, -3.770366406165597E+08, -2.692732815020873E+07,
2459671.500000000, A.D. 2022-Apr-02 00:00:00.0000, 3.064145700902751E+07, -3.769303785332491E+08, -2.748162264453532E+07,
2459678.500000000, A.D. 2022-Apr-09 00:00:00.0000, 4.152345923460671E+07, -3.764884247476075E+08, -2.801144307200989E+07,
2459685.500000000, A.D. 2022-Apr-16 00:00:00.0000, 5.236869263407141E+07, -3.757128501102489E+08, -2.851644242878133E+07,
2459692.500000000, A.D. 2022-Apr-23 00:00:00.0000, 6.316777178056844E+07, -3.746059382932246E+08, -2.899629456620130E+07,
2459699.500000000, A.D. 2022-Apr-30 00:00:00.0000, 7.391143082145104E+07, -3.731701792287924E+08, -2.945069361015971E+07,
2459706.500000000, A.D. 2022-May-07 00:00:00.0000, 8.459052322208956E+07, -3.714082654213234E+08, -2.987935366110899E+07,
2459713.500000000, A.D. 2022-May-14 00:00:00.0000, 9.519602337786487E+07, -3.693230880885774E+08, -3.028200865472306E+07,
2459720.500000000, A.D. 2022-May-21 00:00:00.0000, 1.057190280878227E+08, -3.669177323721508E+08, -3.065841213621660E+07,
2459727.500000000, A.D. 2022-May-28 00:00:00.0000, 1.161507574333439E+08, -3.641954725769840E+08, -3.100833698436557E+07,
2459734.500000000, A.D. 2022-Jun-04 00:00:00.0000, 1.264825553574179E+08, -3.611597677541126E+08, -3.133157513760264E+07,
2459741.500000000, A.D. 2022-Jun-11 00:00:00.0000, 1.367058901045032E+08, -3.578142576234056E+08, -3.162793733612952E+07,
2459748.500000000, A.D. 2022-Jun-18 00:00:00.0000, 1.468123545735258E+08, -3.541627588183650E+08, -3.189725288288288E+07,
2459755.500000000, A.D. 2022-Jun-25 00:00:00.0000, 1.567936666276715E+08, -3.502092614788775E+08, -3.213936942894638E+07,
2459762.500000000, A.D. 2022-Jul-02 00:00:00.0000, 1.666416695103012E+08, -3.459579262502437E+08, -3.235415280127728E+07,
2459769.500000000, A.D. 2022-Jul-09 00:00:00.0000, 1.763483327723439E+08, -3.414130815057413E+08, -3.254148689426534E+07,
2459776.500000000, A.D. 2022-Jul-16 00:00:00.0000, 1.859057536691503E+08, -3.365792197047756E+08, -3.270127353152746E+07,
2459783.500000000, A.D. 2022-Jul-23 00:00:00.0000, 1.953061568393545E+08, -3.314609928017330E+08, -3.283343208951157E+07,
2459790.500000000, A.D. 2022-Jul-30 00:00:00.0000, 2.045418923602963E+08, -3.260632100486089E+08, -3.293789916400015E+07,
2459797.500000000, A.D. 2022-Aug-06 00:00:00.0000, 2.136054357915728E+08, -3.203908375319924E+08, -3.301462855608474E+07,
2459804.500000000, A.D. 2022-Aug-13 00:00:00.0000, 2.224893893979911E+08, -3.144489966816984E+08, -3.306359127680653E+07,
2459811.500000000, A.D. 2022-Aug-20 00:00:00.0000, 2.311864829965280E+08, -3.082429622477390E+08, -3.308477546770902E+07,
2459818.500000000, A.D. 2022-Aug-27 00:00:00.0000, 2.396895745085200E+08, -3.017781604659104E+08, -3.307818630318007E+07,
2459825.500000000, A.D. 2022-Sep-03 00:00:00.0000, 2.479916504771541E+08, -2.950601675166222E+08, -3.304384590670626E+07,
2459832.500000000, A.D. 2022-Sep-10 00:00:00.0000, 2.560858266512139E+08, -2.880947082471873E+08, -3.298179328763206E+07,
2459839.500000000, A.D. 2022-Sep-17 00:00:00.0000, 2.639653486737994E+08, -2.808876551526481E+08, -3.289208430138457E+07,
2459846.500000000, A.D. 2022-Sep-24 00:00:00.0000, 2.716235929445935E+08, -2.734450276575163E+08, -3.277479164281087E+07,
2459853.500000000, A.D. 2022-Oct-01 00:00:00.0000, 2.790540679044754E+08, -2.657729917104635E+08, -3.263000489636883E+07,
2459860.500000000, A.D. 2022-Oct-08 00:00:00.0000, 2.862504161607458E+08, -2.578778591604301E+08, -3.245783063789494E+07,
2459867.500000000, A.D. 2022-Oct-15 00:00:00.0000, 2.932064165323358E+08, -2.497660857080433E+08, -3.225839240463500E+07,
2459874.500000000, A.D. 2022-Oct-22 00:00:00.0000, 2.999159838415861E+08, -2.414442691087866E+08, -3.203183047108495E+07,
2459881.500000000, A.D. 2022-Oct-29 00:00:00.0000, 3.063731689566450E+08, -2.329191502100067E+08, -3.177830187154956E+07,
2459888.500000000, A.D. 2022-Nov-05 00:00:00.0000, 3.125721611922087E+08, -2.241976140682264E+08, -3.149798063788107E+07,
2459895.500000000, A.D. 2022-Nov-12 00:00:00.0000, 3.185072911137593E+08, -2.152866898690227E+08, -3.119105796862955E+07,
2459902.500000000, A.D. 2022-Nov-19 00:00:00.0000, 3.241730330352516E+08, -2.061935505933371E+08, -3.085774234153821E+07,
2459909.500000000, A.D. 2022-Nov-26 00:00:00.0000, 3.295640074812267E+08, -1.969255128165043E+08, -3.049825962574778E+07,
2459916.500000000, A.D. 2022-Dec-03 00:00:00.0000, 3.346749837881660E+08, -1.874900366398740E+08, -3.011285320964399E+07,
2459923.500000000, A.D. 2022-Dec-10 00:00:00.0000, 3.395008828996065E+08, -1.778947257244228E+08, -2.970178414670420E+07,
2459930.500000000, A.D. 2022-Dec-17 00:00:00.0000, 3.440367803885392E+08, -1.681473274394850E+08, -2.926533132331556E+07,
2459937.500000000, A.D. 2022-Dec-24 00:00:00.0000, 3.482779098239824E+08, -1.582557331802372E+08, -2.880379166353766E+07,
2459944.500000000, A.D. 2022-Dec-31 00:00:00.0000, 3.522196668454859E+08, -1.482279787325119E+08, -2.831748039417814E+07,
2459951.500000000, A.D. 2023-Jan-07 00:00:00.0000, 3.558576140757527E+08, -1.380722437076620E+08, -2.780673130194782E+07,
2459958.500000000, A.D. 2023-Jan-14 00:00:00.0000, 3.591874849126302E+08, -1.277968495382880E+08, -2.727189676078013E+07,
2459965.500000000, A.D. 2023-Jan-21 00:00:00.0000, 3.622051855580721E+08, -1.174102591945347E+08, -2.671334772834110E+07,
2459972.500000000, A.D. 2023-Jan-28 00:00:00.0000, 3.649067989502403E+08, -1.069210787962766E+08, -2.613147406273989E+07,
2459979.500000000, A.D. 2023-Feb-04 00:00:00.0000, 3.672885903938524E+08, -9.633805806934893E+07, -2.552668489170895E+07,
2459986.500000000, A.D. 2023-Feb-11 00:00:00.0000, 3.693470131033731E+08, -8.567008981758195E+07, -2.489940888468240E+07,
2459993.500000000, A.D. 2023-Feb-18 00:00:00.0000, 3.710787136065730E+08, -7.492620921514949E+07, -2.425009448858470E+07,
2460000.500000000, A.D. 2023-Feb-25 00:00:00.0000, 3.724805372793840E+08, -6.411559306362052E+07, -2.357921016367526E+07,
2460007.500000000, A.D. 2023-Mar-04 00:00:00.0000, 3.735495341188841E+08, -5.324755897643378E+07, -2.288724462589023E+07,
2460014.500000000, A.D. 2023-Mar-11 00:00:00.0000, 3.742829647852407E+08, -4.233156446954242E+07, -2.217470709655215E+07,
2460021.500000000, A.D. 2023-Mar-18 00:00:00.0000, 3.746783069606832E+08, -3.137720598504745E+07, -2.144212756594659E+07,
2460028.500000000, A.D. 2023-Mar-25 00:00:00.0000, 3.747332622280881E+08, -2.039421787142848E+07, -2.069005709134879E+07,
2460035.500000000, A.D. 2023-Apr-01 00:00:00.0000, 3.744457638893932E+08, -9.392470901307980E+06, -1.991906813417927E+07,
2460042.500000000, A.D. 2023-Apr-08 00:00:00.0000, 3.738139851043444E+08, 1.618030928401623E+06, -1.912975477727099E+07,
2460049.500000000, A.D. 2023-Apr-15 00:00:00.0000, 3.728363450144578E+08, 1.262715423751311E+07, -1.832273269595376E+07,
2460056.500000000, A.D. 2023-Apr-22 00:00:00.0000, 3.715115146597390E+08, 2.362463771837326E+07, -1.749863929628887E+07,
2460063.500000000, A.D. 2023-Apr-29 00:00:00.0000, 3.698384254131729E+08, 3.460009348796723E+07, -1.665813408482014E+07,
2460070.500000000, A.D. 2023-May-06 00:00:00.0000, 3.678162781627630E+08, 4.554301014978591E+07, -1.580189896014855E+07,
2460077.500000000, A.D. 2023-May-13 00:00:00.0000, 3.654445522550103E+08, 5.644275670448530E+07, -1.493063840709749E+07,
2460084.500000000, A.D. 2023-May-20 00:00:00.0000, 3.627230144225187E+08, 6.728858685100612E+07, -1.404507965238584E+07,
2460091.500000000, A.D. 2023-May-27 00:00:00.0000, 3.596517278750598E+08, 7.806964368221399E+07, -1.314597279915529E+07,
2460098.500000000, A.D. 2023-Jun-03 00:00:00.0000, 3.562310615949419E+08, 8.877496483536522E+07, -1.223409094055953E+07,
2460105.500000000, A.D. 2023-Jun-10 00:00:00.0000, 3.524616998412948E+08, 9.939348811873196E+07, -1.131023025260652E+07,
2460112.500000000, A.D. 2023-Jun-17 00:00:00.0000, 3.483446519310143E+08, 1.099140575898312E+08, -1.037521007606604E+07,
2460119.500000000, A.D. 2023-Jun-24 00:00:00.0000, 3.438812625924451E+08, 1.203254301754422E+08, -9.429873008943208E+06,
2460126.500000000, A.D. 2023-Jul-01 00:00:00.0000, 3.390732231143385E+08, 1.306162836941591E+08, -8.475084961658984E+06,
2460133.500000000, A.D. 2023-Jul-08 00:00:00.0000, 3.339225815788111E+08, 1.407752271399138E+08, -7.511734950083502E+06,
2460140.500000000, A.D. 2023-Jul-15 00:00:00.0000, 3.284317508699572E+08, 1.507908104366426E+08, -6.540734736128360E+06,
$$EOE